{
"type": "FeatureCollection",
"name": "oceanwaveriskarea",
"crs": { "type": "name", "properties": { "name": "urn:ogc:def:crs:OGC:1.3:CRS84" } },
"features": [
{ "type": "Feature", "properties": { "id": 3,"level": 3 }, "geometry": { "type": "MultiPolygon", "coordinates": [ [ [ [ 119.560400785029273, 24.178502006672737 ], [ 119.584148466883178, 24.194333794575336 ], [ 119.6633074063962, 24.202249688526638 ], [ 119.694970982201397, 24.13892253691623 ], [ 119.687055088250105, 24.043931809500613 ], [ 119.718718664055302, 23.941025188133693 ], [ 119.797877603568324, 23.90144571837719 ], [ 119.84537296727612, 23.893529824425887 ], [ 119.924531906789142, 23.893529824425887 ], [ 119.948279588643047, 23.774791415156365 ], [ 119.98785905839955, 23.600641748227737 ], [ 119.924531906789142, 23.434407975250409 ], [ 119.861204755178733, 23.284005990175682 ], [ 119.726634558006609, 23.173183474857463 ], [ 119.576232572931886, 23.141519899052259 ], [ 119.386251118100645, 23.157351686954861 ], [ 119.307092178587638, 23.228594732516573 ], [ 119.235849133025923, 23.291921884126985 ], [ 119.148774299561609, 23.418576187347806 ], [ 119.148774299561609, 23.537314596617325 ], [ 119.148774299561609, 23.600641748227737 ], [ 119.188353769318113, 23.766875521205066 ], [ 119.259596814879828, 23.909361612328489 ], [ 119.354587542295448, 24.043931809500613 ], [ 119.481241845516266, 24.115174855062325 ], [ 119.560400785029273, 24.178502006672737 ] ] ] ] } },
{ "type": "Feature", "properties": { "id": 2,"level": 2 }, "geometry": { "type": "MultiPolygon", "coordinates": [ [ [ [ 120.098681573717769, 24.970091401802868 ], [ 120.122429255571674, 24.978007295754171 ], [ 120.2411676648412, 24.930511932046365 ], [ 120.217419982987295, 24.811773522776843 ], [ 120.130345149522981, 24.700951007458624 ], [ 120.051186210009959, 24.653455643750817 ], [ 119.916616012837835, 24.534717234481295 ], [ 119.805793497519616, 24.392231143357872 ], [ 119.861204755178733, 24.162670218770131 ], [ 119.98785905839955, 24.059763597403215 ], [ 120.035354422107361, 23.933109294182394 ], [ 120.051186210009959, 23.74312783935116 ], [ 120.035354422107361, 23.473987445006916 ], [ 120.011606740253455, 23.315669565980887 ], [ 119.948279588643047, 23.212762944613971 ], [ 119.869120649130025, 23.094024535344449 ], [ 119.813709391470923, 22.951538444221026 ], [ 119.774129921714419, 22.848631822854109 ], [ 119.592064360834485, 22.769472883341095 ], [ 119.36250343624674, 22.769472883341095 ], [ 119.172521981415514, 22.848631822854109 ], [ 119.077531253999894, 22.951538444221026 ], [ 119.022119996340791, 23.070276853490547 ], [ 118.974624632632981, 23.307753672029587 ], [ 118.982540526584273, 23.624389430081642 ], [ 119.069615360048601, 23.822286778864175 ], [ 119.148774299561609, 24.13892253691623 ], [ 119.251680920928521, 24.352651673601365 ], [ 119.433746481808456, 24.590128492140405 ], [ 119.607896148737083, 24.772194053020336 ], [ 119.908700118886543, 24.970091401802868 ], [ 120.098681573717769, 24.970091401802868 ] ] ] ] } },
{ "type": "Feature", "properties": { "id": 1,"level": 1,  "tippos":[ 126.5, 21.9] }, "geometry": { "type": "MultiPolygon", "coordinates": [ [ [ [ 125.268857665041452, 27.149955341408344 ], [ 125.23429885754021, 27.28819057141332 ], [ 125.424372298797053, 27.54738162767265 ], [ 125.839077988811979, 28.134881355193798 ], [ 126.080989641320684, 28.221278373946905 ], [ 126.633930561340591, 28.203998970196285 ], [ 126.979518636353035, 28.152160758944419 ], [ 127.532459556372942, 27.944807913936955 ], [ 128.240915110148421, 27.63377864642576 ], [ 128.48282676265714, 27.478264012670159 ], [ 128.74201781891648, 27.080837726405857 ], [ 129.070326490178303, 26.717970247642796 ], [ 129.087605893928924, 26.493337998884709 ], [ 129.450473372691988, 26.026794097617916 ], [ 129.536870391445092, 25.767603041358587 ], [ 129.709664428951299, 25.110985698834952 ], [ 129.744223236452541, 24.834515238825002 ], [ 129.830620255205645, 24.419809548810072 ], [ 129.882458466457535, 24.195177300051988 ], [ 129.882458466457535, 23.866868628790172 ], [ 129.847899658956294, 23.711353995034571 ], [ 129.778782043953782, 23.089295460012181 ], [ 129.744223236452541, 22.691869173747875 ], [ 129.675105621450058, 22.173487061229217 ], [ 129.571429198946333, 21.776060774964915 ], [ 129.415914565190747, 21.292237469947501 ], [ 129.312238142686994, 20.77385535742884 ], [ 129.070326490178303, 20.393708474915158 ], [ 128.690179607664618, 20.15179682240645 ], [ 128.20635630264718, 19.788929343643389 ], [ 127.912606438886627, 19.598855902386546 ], [ 127.463341941370444, 19.460620672381573 ], [ 126.582092350088729, 19.443341268630949 ], [ 126.236504275076285, 19.443341268630949 ], [ 126.011872026318201, 19.443341268630949 ], [ 125.683563355056378, 19.443341268630949 ], [ 125.320695876293328, 19.426061864880324 ], [ 124.923269590029022, 19.460620672381573 ], [ 124.525843303764717, 19.495179479882815 ], [ 124.266652247505391, 19.650694113638412 ], [ 123.921064172492947, 19.80620874739401 ], [ 123.800108346238588, 19.892605766147121 ], [ 123.696431923734863, 19.909885169897741 ], [ 123.437240867475538, 20.013561592401473 ], [ 123.333564444971799, 20.013561592401473 ], [ 123.057093984961853, 20.065399803653339 ], [ 122.746064717450651, 20.013561592401473 ], [ 122.365917834936965, 19.996282188650852 ], [ 121.882094529919556, 19.927164573648362 ], [ 121.294594802398407, 19.80620874739401 ], [ 121.139080168642806, 19.80620874739401 ], [ 120.914447919884722, 19.788929343643389 ], [ 120.551580441121672, 20.013561592401473 ], [ 120.344227596114195, 20.065399803653339 ], [ 120.223271769859849, 20.480105493668269 ], [ 120.24055117361047, 20.635620127423863 ], [ 120.292389384862332, 20.791134761179464 ], [ 120.413345211116692, 20.998487606186927 ], [ 120.499742229869796, 21.102164028690659 ], [ 120.620698056124155, 21.257678662446253 ], [ 120.845330304882239, 21.430472699952475 ], [ 121.087241957390944, 21.516869718705586 ], [ 121.34643301365027, 21.551428526206827 ], [ 121.588344666158974, 21.585987333708072 ], [ 121.657462281161472, 21.620546141209317 ], [ 121.864815126168935, 21.897016601219267 ], [ 122.003050356173901, 22.069810638725485 ], [ 122.210403201181379, 22.467236924989791 ], [ 122.314079623685103, 22.605472154994768 ], [ 122.469594257440704, 22.830104403752856 ], [ 122.555991276193808, 22.951060230007208 ], [ 122.780623524951892, 23.331207112520893 ], [ 122.815182332453134, 23.538559957528356 ], [ 122.936138158707493, 23.815030417538306 ], [ 123.074373388712473, 24.005103858795145 ], [ 123.074373388712473, 24.005103858795145 ], [ 123.264446829969316, 24.108780281298877 ], [ 123.506358482478021, 24.229736107553233 ], [ 123.696431923734863, 24.402530145059451 ], [ 123.800108346238588, 24.523485971313804 ], [ 123.869225961241085, 24.851794642575623 ], [ 123.748270134986726, 25.214662121338684 ], [ 123.713711327485484, 25.646647215104235 ], [ 123.765549538737346, 25.871279463862319 ], [ 123.834667153739844, 26.078632308869782 ], [ 123.938343576243568, 26.527896806385954 ], [ 124.439446285011599, 26.683411440141551 ], [ 124.750475552522801, 26.735249651393417 ], [ 125.096063627535244, 26.92532309265026 ], [ 125.268857665041452, 27.149955341408344 ] ] ] ] } },
{ "type": "Feature", "properties": { "id": 2,"level": 2,  "tippos":[ 127.3, 29.9]}, "geometry": { "type": "MultiPolygon", "coordinates": [ [ [ [ 126.724391602295611, 31.371853110848065 ], [ 126.805745140258566, 31.453206648811019 ], [ 127.18539498408569, 31.561678032761623 ], [ 127.809105441801663, 31.534560186773973 ], [ 128.595522975443544, 31.317617418872764 ], [ 129.246351279147177, 30.937967575045647 ], [ 130.141240196739659, 30.314257117329667 ], [ 130.493772194579122, 29.663428813626041 ], [ 130.575125732542091, 28.687186358070594 ], [ 130.873422038406261, 27.738061748502801 ], [ 131.144600498282756, 27.005879906836221 ], [ 131.144600498282756, 25.866930375354869 ], [ 131.198836190258078, 24.97204145776238 ], [ 131.225954036245724, 23.968681156219283 ], [ 131.171718344270403, 23.317852852515653 ], [ 131.144600498282756, 22.36872824294786 ], [ 131.144600498282756, 21.826371323194838 ], [ 130.900539884393908, 20.958600251589999 ], [ 130.792068500443293, 20.687421791713486 ], [ 130.520890040566769, 20.009475642022206 ], [ 130.059886658776719, 19.087468878442063 ], [ 129.544647585011347, 18.680701188627296 ], [ 129.029408511245975, 18.328169190787829 ], [ 128.351462361554695, 18.002755038936016 ], [ 127.971812517727571, 17.867165808997758 ], [ 127.619280519888108, 17.704458733071853 ], [ 127.104041446122736, 17.568869503133595 ], [ 126.615920218345011, 17.514633811158294 ], [ 125.856620530690776, 17.541751657145944 ], [ 125.232910072974789, 17.650223041096549 ], [ 124.96173161309828, 17.704458733071853 ], [ 124.039724849518137, 17.921401500973062 ], [ 122.873657472049132, 18.436640574738433 ], [ 121.734707940567787, 18.7891725725779 ], [ 120.73134763902469, 18.680701188627296 ], [ 120.24322641124698, 18.301051344800179 ], [ 119.944930105382809, 17.704458733071853 ], [ 119.782223029456901, 17.297691043257082 ], [ 119.456808877605084, 16.673980585541106 ], [ 119.429691031617438, 16.212977203751034 ], [ 119.456808877605084, 15.887563051899221 ], [ 119.402573185629791, 15.290970440170891 ], [ 119.456808877605084, 14.965556288319078 ], [ 119.6737516455063, 14.368963676590752 ], [ 119.511044569580392, 13.880842448813031 ], [ 119.077159033777974, 13.826606756837727 ], [ 118.670391343963203, 13.772371064862423 ], [ 118.046680886247231, 13.826606756837727 ], [ 117.694148888407753, 13.880842448813031 ], [ 116.934849200753519, 14.12490306270189 ], [ 116.636552894889363, 14.260492292640148 ], [ 116.256903051062238, 14.504552906529007 ], [ 116.01284243717339, 14.80284921239317 ], [ 115.741663977296867, 15.074027672269683 ], [ 115.578956901370958, 15.562148900047404 ], [ 115.145071365568541, 16.402802125664593 ], [ 115.063717827605586, 17.053630429368223 ], [ 115.03659998161794, 17.541751657145944 ], [ 115.117953519580894, 18.084108576898966 ], [ 115.145071365568541, 18.734936880602596 ], [ 115.280660595506802, 19.168822416405018 ], [ 115.389131979457403, 19.494236568256831 ], [ 115.687428285321573, 19.982357796034552 ], [ 116.067078129148683, 20.172182717948111 ], [ 116.473845818963454, 20.226418409923415 ], [ 116.77214212482761, 19.955239950046902 ], [ 116.989084892728826, 19.738297182145693 ], [ 117.287381198592982, 19.521354414244481 ], [ 117.504323966494198, 19.385765184306226 ], [ 117.802620272358354, 19.385765184306226 ], [ 117.965327348284262, 19.575590106219785 ], [ 118.073798732234877, 20.117947025972811 ], [ 118.128034424210171, 20.280654101898715 ], [ 118.290741500136079, 20.633186099738182 ], [ 119.402573185629791, 21.229778711466508 ], [ 120.514404871123489, 21.71789993924423 ], [ 121.029643944888861, 21.880607015170138 ], [ 121.273704558777723, 21.961960553133093 ], [ 121.490647326678925, 22.31449255097256 ], [ 121.626236556617187, 22.531435318873768 ], [ 121.843179324518388, 23.01955654665149 ], [ 122.033004246431958, 23.480559928441561 ], [ 122.195711322357852, 23.995799002206933 ], [ 122.385536244271421, 24.619509459922909 ], [ 122.494007628222022, 24.890687919799426 ], [ 122.548243320197329, 25.378809147577144 ], [ 122.521125474209668, 26.002519605293124 ], [ 122.575361166184976, 26.355051603132591 ], [ 122.792303934086192, 27.114351290786825 ], [ 123.090600239950348, 27.819415286465755 ], [ 123.280425161863917, 28.280418668255827 ], [ 123.660075005691027, 28.931246971959457 ], [ 123.795664235629289, 29.31089681578657 ], [ 124.093960541493445, 29.609193121650737 ], [ 124.771906691184725, 30.070196503440805 ], [ 125.449852840876005, 30.693906961156785 ], [ 126.019327606616685, 31.073556804983902 ], [ 126.724391602295611, 31.371853110848065 ] ] ] ] } },
{ "type": "Feature", "properties": { "id": 3,"level": 3,  "tippos":[ 112.79, 15.74]}, "geometry": { "type": "MultiPolygon", "coordinates": [ [ [ [ 126.154916836554946, 33.134513100045396 ], [ 125.965091914641391, 33.188748792020696 ], [ 125.965091914641391, 33.351455867946605 ], [ 125.992209760629038, 33.839577095724323 ], [ 126.182034682542593, 34.002284171650231 ], [ 126.317623912480855, 34.16499124757614 ], [ 126.778627294270933, 34.300580477514394 ], [ 127.402337751986906, 34.300580477514394 ], [ 127.673516211863415, 34.300580477514394 ], [ 128.026048209702878, 34.300580477514394 ], [ 128.351462361554695, 34.300580477514394 ], [ 128.649758667418865, 34.192109093563793 ], [ 128.75823005136948, 33.812459249736676 ], [ 129.056526357233622, 32.86333464016888 ], [ 129.13787989519659, 32.59215618029237 ], [ 129.626001122974316, 32.022681414551691 ], [ 129.978533120813779, 31.53456018677397 ], [ 130.439536502603829, 31.019321113008598 ], [ 130.846304192418614, 30.61255342319383 ], [ 131.225954036245724, 30.395610655292618 ], [ 131.605603880072834, 30.368492809304968 ], [ 132.202196491801175, 30.26002142535436 ], [ 132.636082027603607, 29.663428813626034 ], [ 132.98861402544307, 29.093954047885362 ], [ 133.341146023282533, 28.66006851208294 ], [ 133.530970945196088, 27.738061748502798 ], [ 133.530970945196088, 27.141469136774472 ], [ 133.585206637171382, 26.571994371033796 ], [ 134.019092172973814, 25.40592699356479 ], [ 134.073327864949107, 24.511038075972301 ], [ 134.208917094887369, 23.534795620416858 ], [ 134.236034940875015, 23.100910084614437 ], [ 134.208917094887369, 22.667024548812019 ], [ 134.154681402912047, 21.690782093256573 ], [ 134.019092172973814, 19.440000876281523 ], [ 133.259792485319565, 17.324808889244725 ], [ 130.276829426677921, 14.911320596343774 ], [ 129.436176201060732, 14.396081522578402 ], [ 128.16163743964114, 13.989313832763635 ], [ 126.859980832233873, 13.853724602825377 ], [ 125.504088532851313, 14.070667370726589 ], [ 124.744788845197078, 14.396081522578402 ], [ 123.985489157542844, 15.074027672269683 ], [ 123.497367929765119, 15.616384592022708 ], [ 123.117718085938009, 16.375684279676943 ], [ 122.927893164024439, 17.189219659306477 ], [ 122.65671470414793, 17.840047963010107 ], [ 122.494007628222022, 18.328169190787829 ], [ 122.195711322357852, 18.490876266713737 ], [ 121.816061478530742, 18.490876266713737 ], [ 121.409293788715971, 18.653583342639642 ], [ 120.894054714950599, 18.626465496651992 ], [ 120.460169179148181, 18.382404882763133 ], [ 120.32457994920992, 18.165462114861921 ], [ 120.24322641124698, 17.840047963010107 ], [ 120.24322641124698, 17.541751657145944 ], [ 120.24322641124698, 17.243455351281781 ], [ 120.24322641124698, 16.701098431528756 ], [ 120.134755027296364, 16.402802125664593 ], [ 119.727987337481608, 16.673980585541106 ], [ 119.646633799518639, 16.429919971652243 ], [ 119.592398107543346, 16.050270127825126 ], [ 119.700869491493947, 15.670620283998009 ], [ 119.755105183469254, 15.507913208072104 ], [ 119.863576567419855, 15.046909826282032 ], [ 119.917812259395163, 14.857084904368474 ], [ 120.026283643345764, 14.667259982454915 ], [ 120.080519335321071, 14.423199368566053 ], [ 120.026283643345764, 14.179138754677194 ], [ 119.944930105382809, 13.772371064862423 ], [ 119.836458721432209, 13.501192604985913 ], [ 119.782223029456901, 13.257131991097051 ], [ 119.239866109703883, 12.714775071344025 ], [ 119.022923341802667, 12.226653843566304 ], [ 118.724627035938511, 11.575825539862677 ], [ 118.209387962173139, 10.789408006220789 ], [ 117.63991319643246, 10.002990472578905 ], [ 116.77214212482761, 8.674216019183994 ], [ 115.958606745198082, 7.86068063955446 ], [ 115.497603363408004, 7.453912949739689 ], [ 114.331535985939013, 6.830202492023712 ], [ 113.138350762482361, 6.450552648196592 ], [ 112.107872614951603, 6.450552648196592 ], [ 110.941805237482612, 6.586141878134853 ], [ 109.938444935939515, 7.020027413937271 ], [ 109.613030784087698, 7.372559411776738 ], [ 109.504559400137083, 7.670855717640901 ], [ 109.640148630075345, 8.430155405295135 ], [ 109.938444935939515, 9.162337246961716 ], [ 110.155387703840717, 10.002990472578905 ], [ 110.535037547667841, 11.331764925973815 ], [ 110.670626777606088, 12.280889535541608 ], [ 110.887569545507304, 12.904599993257584 ], [ 110.914687391494951, 13.935078140788331 ], [ 110.941805237482612, 14.585906444491961 ], [ 111.023158775445552, 15.128263364244987 ], [ 111.212983697359121, 15.751973821960963 ], [ 111.402808619272676, 16.402802125664593 ], [ 111.565515695198584, 16.80956981547936 ], [ 111.945165539025695, 17.324808889244736 ], [ 112.189226152914557, 17.595987349121245 ], [ 112.487522458778727, 17.812930117022457 ], [ 112.677347380692282, 18.002755038936016 ], [ 112.894290148593484, 18.273933498812525 ], [ 113.1112329164947, 18.463758420726084 ], [ 113.219704300445301, 18.924761802516155 ], [ 113.572236298284778, 19.656943644182739 ], [ 113.951886142111888, 20.226418409923415 ], [ 115.03659998161794, 21.148425173503554 ], [ 115.660310439333912, 21.284014403441812 ], [ 116.3924922810005, 21.284014403441812 ], [ 116.880613508778225, 21.175543019491208 ], [ 117.233145506617689, 20.931482405602345 ], [ 117.585677504457152, 20.850128867639391 ], [ 117.775502426370707, 20.633186099738182 ], [ 118.01956304025957, 21.0128359435653 ], [ 118.453448576061987, 21.392485787392417 ], [ 118.778862727913804, 21.66366424726893 ], [ 119.700869491493947, 21.934842707145442 ], [ 119.972047951370456, 21.989078399120743 ], [ 120.649994101061736, 21.989078399120743 ], [ 121.056761790876507, 22.097549783071347 ], [ 121.138115328839461, 22.233139013009605 ], [ 121.246586712790062, 22.31449255097256 ], [ 121.382175942728324, 22.612788856836723 ], [ 121.572000864641879, 22.883967316713232 ], [ 121.707590094580141, 23.263617160540349 ], [ 121.870297170506049, 23.643267004367466 ], [ 121.97876855445665, 24.022916848194583 ], [ 122.087239938407251, 24.538155921959959 ], [ 122.060122092419604, 25.02627714973768 ], [ 122.060122092419604, 25.541516223503052 ], [ 122.087239938407251, 25.975401759305473 ], [ 121.993530072182423, 26.268038603169053 ], [ 121.560937756273077, 26.400413010868963 ], [ 121.32786568544293, 26.833261142410663 ], [ 121.677473791688143, 27.582421370078993 ], [ 122.222829168345513, 28.253300822268173 ], [ 122.412654090259068, 28.822775588008852 ], [ 122.738068242110884, 29.853253735539596 ], [ 123.199071623900949, 30.937967575045647 ], [ 123.524485775752765, 31.398970956835718 ], [ 124.392256847357601, 32.131152798502299 ], [ 125.043085151061234, 32.673509718255325 ], [ 125.531206378838959, 32.917570332144187 ], [ 126.154916836554946, 33.134513100045396 ] ] ] ] } }
]
}
